[{"OBJECT_NAME":"RAISE 2","OBJECT_ID":"2021-102C","EPOCH":"2026-03-09T15:24:00.371808","MEAN_MOTION":15.20242049,"ECCENTRICITY":0.0007134,"INCLINATION":97.3388,"RA_OF_ASC_NODE":104.317,"ARG_OF_PERICENTER":273.4447,"MEAN_ANOMALY":86.5972,"EPHEMERIS_TYPE":0,"CLASSIFICATION_TYPE":"U","NORAD_CAT_ID":49397,"ELEMENT_SET_NO":999,"REV_AT_EPOCH":23830,"BSTAR":0.00039057,"MEAN_MOTION_DOT":8.413e-5,"MEAN_MOTION_DDOT":0},{"OBJECT_NAME":"FLOCK 4H-16","OBJECT_ID":"2025-276BF","EPOCH":"2026-03-09T18:22:00.923808","MEAN_MOTION":15.18505927,"ECCENTRICITY":0.00041583,"INCLINATION":97.4302,"RA_OF_ASC_NODE":144.0218,"ARG_OF_PERICENTER":10.1736,"MEAN_ANOMALY":349.9581,"EPHEMERIS_TYPE":0,"CLASSIFICATION_TYPE":"U","NORAD_CAT_ID":66719,"ELEMENT_SET_NO":999,"REV_AT_EPOCH":1532,"BSTAR":0.00041273119,"MEAN_MOTION_DOT":8.452e-5,"MEAN_MOTION_DDOT":0}]
