RAISE 2                 
1 49397U 21102C   26068.64167097  .00008413  00000+0  39057-3 0  9992
2 49397  97.3388 104.3170 0007134 273.4447  86.5972 15.20242049238306
FLOCK 4H-16             
1 66719U 25276BF  26068.76528846  .00008452  00000+0  41273-3 0  9997
2 66719  97.4302 144.0218 0004158  10.1736 349.9581 15.18505927 15325
